[
    {
        "CCSDS_OMM_VERS": "3.0",
        "COMMENT": "GENERATED VIA SPACE-TRACK.ORG API",
        "CREATION_DATE": "2025-02-28T19:05:01",
        "ORIGINATOR": "18 SPCS",
        "OBJECT_NAME": "GALILEO 15 (267)",
        "OBJECT_ID": "2016-069A",
        "CENTER_NAME": "EARTH",
        "REF_FRAME": "TEME",
        "TIME_SYSTEM": "UTC",
        "MEAN_ELEMENT_THEORY": "SGP4",
        "EPOCH": "2025-02-27T18:51:51.312384",
        "MEAN_MOTION": "1.70474543",
        "ECCENTRICITY": "0.00049130",
        "INCLINATION": "55.2144",
        "RA_OF_ASC_NODE": "114.2277",
        "ARG_OF_PERICENTER": "298.1375",
        "MEAN_ANOMALY": "61.9061",
        "EPHEMERIS_TYPE": "0",
        "CLASSIFICATION_TYPE": "U",
        "NORAD_CAT_ID": "41859",
        "ELEMENT_SET_NO": "999",
        "REV_AT_EPOCH": "5131",
        "BSTAR": "0.00000000000000",
        "MEAN_MOTION_DOT": "0.00000029",
        "MEAN_MOTION_DDOT": "0.0000000000000",
        "SEMIMAJOR_AXIS": "29600.257",
        "PERIOD": "844.701",
        "APOAPSIS": "23236.665",
        "PERIAPSIS": "23207.580",
        "OBJECT_TYPE": "PAYLOAD",
        "RCS_SIZE": "LARGE",
        "COUNTRY_CODE": "ESA",
        "LAUNCH_DATE": "2016-11-17",
        "SITE": "FRGUI",
        "DECAY_DATE": null,
        "FILE": "4655208",
        "GP_ID": "281920102",
        "TLE_LINE0": "0 GALILEO 15 (267)",
        "TLE_LINE1": "1 41859U 16069A   25058.78601056  .00000029  00000-0  00000-0 0  9993",
        "TLE_LINE2": "2 41859  55.2144 114.2277 0004913 298.1375  61.9061  1.70474543 51314"
    }
]